start=new Date('2022-05-28T00:00:00.000Z').valueOf();
sats=[{"TLE_LINE1":"1 51745U 22016AH  22147.91668981 -.00009409  00000-0 -57364-3 0  9999","MEAN_MOTION":"15.08853142","ELEMENT_SET_NO":"999","NORAD_CAT_ID":"51745","REF_FRAME":"TEME","SITE":"AFETR","PERIAPSIS":"538.478","OBJECT_ID":"2022-016AH","REV_AT_EPOCH":"130","FILE":"3468079","PERIOD":"95.437","OBJECT_NAME":"STARLINK-3449","EPOCH":"2022-05-27T22:00:01.999584","CLASSIFICATION_TYPE":"U","OBJECT_TYPE":"PAYLOAD","RA_OF_ASC_NODE":"42.1393","CENTER_NAME":"EARTH","MEAN_ANOMALY":"221.3315","SEMIMAJOR_AXIS":"6917.840","MEAN_ELEMENT_THEORY":"SGP4","TLE_LINE2":"2 51745  53.2155  42.1393 0001774  55.2222 221.3315 15.08853142  1302","BSTAR":"-0.00057364000000","APOAPSIS":"540.932","LAUNCH_DATE":"2022-02-21","DECAY_DATE":null,"COUNTRY_CODE":"US","ARG_OF_PERICENTER":"55.2222","RCS_SIZE":"LARGE","INCLINATION":"53.2155","ECCENTRICITY":"0.00017740","MEAN_MOTION_DOT":"-0.00009409","EPHEMERIS_TYPE":"0","MEAN_MOTION_DDOT":"0.0000000000000","GP_ID":"204717979","TIME_SYSTEM":"UTC"},{"SEMIMAJOR_AXIS":"6857.319","MEAN_ANOMALY":"274.1541","CENTER_NAME":"EARTH","RA_OF_ASC_NODE":"33.1646","OBJECT_TYPE":"PAYLOAD","CLASSIFICATION_TYPE":"U","EPOCH":"2022-05-27T21:26:24.031680","PERIOD":"94.187","OBJECT_NAME":"STARLINK-3502","FILE":"3468079","REV_AT_EPOCH":"1508","OBJECT_ID":"2022-016AJ","PERIAPSIS":"478.063","SITE":"AFETR","REF_FRAME":"TEME","NORAD_CAT_ID":"51746","TLE_LINE1":"1 51746U 22016AJ  22147.89333370 -.00192894  00000-0 -69496-2 0  9997","ELEMENT_SET_NO":"999","MEAN_MOTION":"15.28872218","TIME_SYSTEM":"UTC","GP_ID":"204716737","MEAN_MOTION_DDOT":"0.0000000000000","EPHEMERIS_TYPE":"0","MEAN_MOTION_DOT":"-0.00192894","ECCENTRICITY":"0.00016360","INCLINATION":"53.2154","RCS_SIZE":"LARGE","ARG_OF_PERICENTER":"85.9647","COUNTRY_CODE":"US","DECAY_DATE":null,"LAUNCH_DATE":"2022-02-21","BSTAR":"-0.00694960000000","APOAPSIS":"480.306","TLE_LINE2":"2 51746  53.2154  33.1646 0001636  85.9647 274.1541 15.28872218 15085","MEAN_ELEMENT_THEORY":"SGP4"},{"MEAN_MOTION_DDOT":"0.0000000000000","GP_ID":"204717488","TIME_SYSTEM":"UTC","MEAN_MOTION_DOT":"-0.00001378","EPHEMERIS_TYPE":"0","ECCENTRICITY":"0.00017860","INCLINATION":"53.2184","RCS_SIZE":"LARGE","COUNTRY_CODE":"US","ARG_OF_PERICENTER":"55.6329","LAUNCH_DATE":"2022-02-21","DECAY_DATE":null,"TLE_LINE2":"2 51747  53.2184  42.1087 0001786  55.6329 304.4832 15.08831486 14961","MEAN_ELEMENT_THEORY":"SGP4","APOAPSIS":"541.007","BSTAR":"-0.00006847900000","SEMIMAJOR_AXIS":"6917.906","CENTER_NAME":"EARTH","MEAN_ANOMALY":"304.4832","RA_OF_ASC_NODE":"42.1087","OBJECT_TYPE":"PAYLOAD","EPOCH":"2022-05-27T22:06:16.846848","CLASSIFICATION_TYPE":"U","REV_AT_EPOCH":"1496","PERIOD":"95.438","OBJECT_NAME":"STARLINK-3446","FILE":"3468079","SITE":"AFETR","REF_FRAME":"TEME","NORAD_CAT_ID":"51747","OBJECT_ID":"2022-016AK","PERIAPSIS":"538.536","TLE_LINE1":"1 51747U 22016AK  22147.92102832 -.00001378  00000-0 -68479-4 0  9997","ELEMENT_SET_NO":"999","MEAN_MOTION":"15.08831486"},{"LAUNCH_DATE":"2022-02-21","DECAY_DATE":null,"MEAN_ELEMENT_THEORY":"SGP4","TLE_LINE2":"2 51748  53.2157  33.1914 0001779  44.0433 316.0709 15.29104684 15083","APOAPSIS":"479.709","BSTAR":"-0.01066200000000","RCS_SIZE":"LARGE","COUNTRY_CODE":"US","ARG_OF_PERICENTER":"44.0433","MEAN_MOTION_DOT":"-0.00293906","EPHEMERIS_TYPE":"0","ECCENTRICITY":"0.00017790","INCLINATION":"53.2157","MEAN_MOTION_DDOT":"0.0000000000000","TIME_SYSTEM":"UTC","GP_ID":"204718235","NORAD_CAT_ID":"51748","REF_FRAME":"TEME","SITE":"AFETR","PERIAPSIS":"477.270","OBJECT_ID":"2022-016AL","TLE_LINE1":"1 51748U 22016AL  22147.88895264 -.00293906  00000-0 -10662-1 0  9999","MEAN_MOTION":"15.29104684","ELEMENT_SET_NO":"999","EPOCH":"2022-05-27T21:20:05.508096","CLASSIFICATION_TYPE":"U","REV_AT_EPOCH":"1508","FILE":"3468079","OBJECT_NAME":"STARLINK-3501","PERIOD":"94.173","RA_OF_ASC_NODE":"33.1914","OBJECT_TYPE":"PAYLOAD","SEMIMAJOR_AXIS":"6856.624","CENTER_NAME":"EARTH","MEAN_ANOMALY":"316.0709"},{"MEAN_MOTION_DDOT":"0.0000000000000","GP_ID":"204718479","TIME_SYSTEM":"UTC","MEAN_MOTION_DOT":"-0.00000638","EPHEMERIS_TYPE":"0","INCLINATION":"53.2154","ECCENTRICITY":"0.00018420","RCS_SIZE":"LARGE","COUNTRY_CODE":"US","ARG_OF_PERICENTER":"52.8004","LAUNCH_DATE":"2022-02-21","DECAY_DATE":null,"MEAN_ELEMENT_THEORY":"SGP4","TLE_LINE2":"2 51749  53.2154  42.2827 0001842  52.8004 307.3156 15.08836659 14952","APOAPSIS":"541.030","BSTAR":"-0.00002196900000","SEMIMAJOR_AXIS":"6917.891","CENTER_NAME":"EARTH","MEAN_ANOMALY":"307.3156","RA_OF_ASC_NODE":"42.2827","OBJECT_TYPE":"PAYLOAD","EPOCH":"2022-05-27T21:14:40.611264","CLASSIFICATION_TYPE":"U","REV_AT_EPOCH":"1495","FILE":"3468079","OBJECT_NAME":"STARLINK-3451","PERIOD":"95.438","NORAD_CAT_ID":"51749","SITE":"AFETR","REF_FRAME":"TEME","PERIAPSIS":"538.481","OBJECT_ID":"2022-016AM","TLE_LINE1":"1 51749U 22016AM  22147.88519226 -.00000638  00000-0 -21969-4 0  9994","ELEMENT_SET_NO":"999","MEAN_MOTION":"15.08836659"},{"OBJECT_TYPE":"PAYLOAD","RA_OF_ASC_NODE":"33.0604","MEAN_ANOMALY":"117.0418","CENTER_NAME":"EARTH","SEMIMAJOR_AXIS":"6858.372","TLE_LINE1":"1 51750U 22016AN  22147.91668981 -.00723233  00000-0 -27553-1 0  9998","MEAN_MOTION":"15.28520124","ELEMENT_SET_NO":"999","OBJECT_ID":"2022-016AN","PERIAPSIS":"479.174","NORAD_CAT_ID":"51750","REF_FRAME":"TEME","SITE":"AFETR","FILE":"3468079","PERIOD":"94.209","OBJECT_NAME":"STARLINK-3505","REV_AT_EPOCH":"130","CLASSIFICATION_TYPE":"U","EPOCH":"2022-05-27T22:00:01.999584","INCLINATION":"53.2172","ECCENTRICITY":"0.00015500","EPHEMERIS_TYPE":"0","MEAN_MOTION_DOT":"-0.00723233","GP_ID":"204717237","TIME_SYSTEM":"UTC","MEAN_MOTION_DDOT":"0.0000000000000","BSTAR":"-0.02755300000000","APOAPSIS":"481.301","MEAN_ELEMENT_THEORY":"SGP4","TLE_LINE2":"2 51750  53.2172  33.0604 0001550  58.0984 117.0418 15.28520124  1307","DECAY_DATE":null,"LAUNCH_DATE":"2022-02-21","ARG_OF_PERICENTER":"58.0984","COUNTRY_CODE":"US","RCS_SIZE":"MEDIUM"},{"EPHEMERIS_TYPE":"0","MEAN_MOTION_DOT":"-0.00338321","ECCENTRICITY":"0.00012690","INCLINATION":"53.2155","GP_ID":"204717988","TIME_SYSTEM":"UTC","MEAN_MOTION_DDOT":"0.0000000000000","DECAY_DATE":null,"LAUNCH_DATE":"2022-02-21","BSTAR":"-0.01247400000000","APOAPSIS":"480.340","MEAN_ELEMENT_THEORY":"SGP4","TLE_LINE2":"2 51751  53.2155  33.1804 0001269  64.8886 295.2247 15.28776764 15087","RCS_SIZE":"LARGE","ARG_OF_PERICENTER":"64.8886","COUNTRY_CODE":"US","RA_OF_ASC_NODE":"33.1804","OBJECT_TYPE":"PAYLOAD","SEMIMAJOR_AXIS":"6857.605","MEAN_ANOMALY":"295.2247","CENTER_NAME":"EARTH","OBJECT_ID":"2022-016AP","PERIAPSIS":"478.600","NORAD_CAT_ID":"51751","REF_FRAME":"TEME","SITE":"AFETR","ELEMENT_SET_NO":"999","TLE_LINE1":"1 51751U 22016AP  22147.89086889 -.00338321  00000-0 -12474-1 0  9993","MEAN_MOTION":"15.28776764","CLASSIFICATION_TYPE":"U","EPOCH":"2022-05-27T21:22:51.072096","FILE":"3468079","PERIOD":"94.193","OBJECT_NAME":"STARLINK-3506","REV_AT_EPOCH":"1508"},{"CENTER_NAME":"EARTH","MEAN_ANOMALY":"335.7475","SEMIMAJOR_AXIS":"6854.052","OBJECT_TYPE":"PAYLOAD","RA_OF_ASC_NODE":"33.2364","REV_AT_EPOCH":"1508","FILE":"3468079","PERIOD":"94.120","OBJECT_NAME":"STARLINK-3511","EPOCH":"2022-05-27T21:12:01.020960","CLASSIFICATION_TYPE":"U","MEAN_MOTION":"15.29965473","TLE_LINE1":"1 51752U 22016AQ  22147.88334515 -.00202672  00000-0 -70696-2 0  9995","ELEMENT_SET_NO":"999","NORAD_CAT_ID":"51752","SITE":"AFETR","REF_FRAME":"TEME","OBJECT_ID":"2022-016AQ","PERIAPSIS":"475.045","MEAN_MOTION_DDOT":"0.0000000000000","GP_ID":"204717736","TIME_SYSTEM":"UTC","INCLINATION":"53.2161","ECCENTRICITY":"0.00012730","MEAN_MOTION_DOT":"-0.00202672","EPHEMERIS_TYPE":"0","COUNTRY_CODE":"US","ARG_OF_PERICENTER":"24.3587","RCS_SIZE":"LARGE","MEAN_ELEMENT_THEORY":"SGP4","TLE_LINE2":"2 51752  53.2161  33.2364 0001273  24.3587 335.7475 15.29965473 15082","APOAPSIS":"476.790","BSTAR":"-0.00706960000000","LAUNCH_DATE":"2022-02-21","DECAY_DATE":null},{"TLE_LINE1":"1 51753U 22016AR  22147.88733968 -.00187274  00000-0 -65990-2 0  9992","ELEMENT_SET_NO":"999","MEAN_MOTION":"15.29567065","OBJECT_ID":"2022-016AR","PERIAPSIS":"476.217","NORAD_CAT_ID":"51753","SITE":"AFETR","REF_FRAME":"TEME","FILE":"3468079","PERIOD":"94.144","OBJECT_NAME":"STARLINK-3507","REV_AT_EPOCH":"1508","CLASSIFICATION_TYPE":"U","EPOCH":"2022-05-27T21:17:46.148352","OBJECT_TYPE":"PAYLOAD","RA_OF_ASC_NODE":"33.2080","MEAN_ANOMALY":"324.4488","CENTER_NAME":"EARTH","SEMIMAJOR_AXIS":"6855.243","APOAPSIS":"477.998","BSTAR":"-0.00659900000000","MEAN_ELEMENT_THEORY":"SGP4","TLE_LINE2":"2 51753  53.2150  33.2080 0001299  35.6600 324.4488 15.29567065 15089","DECAY_DATE":null,"LAUNCH_DATE":"2022-02-21","ARG_OF_PERICENTER":"35.6600","COUNTRY_CODE":"US","RCS_SIZE":"LARGE","ECCENTRICITY":"0.00012990","INCLINATION":"53.2150","EPHEMERIS_TYPE":"0","MEAN_MOTION_DOT":"-0.00187274","GP_ID":"204717980","TIME_SYSTEM":"UTC","MEAN_MOTION_DDOT":"0.0000000000000"},{"CLASSIFICATION_TYPE":"U","EPOCH":"2022-05-27T22:00:01.999584","OBJECT_NAME":"STARLINK-3457","PERIOD":"94.183","FILE":"3468079","REV_AT_EPOCH":"130","PERIAPSIS":"477.895","OBJECT_ID":"2022-016AS","SITE":"AFETR","REF_FRAME":"TEME","NORAD_CAT_ID":"51754","TLE_LINE1":"1 51754U 22016AS  22147.91668981 -.00550125  00000-0 -20765-1 0  9998","MEAN_MOTION":"15.28940600","ELEMENT_SET_NO":"999","SEMIMAJOR_AXIS":"6857.115","MEAN_ANOMALY":"129.0216","CENTER_NAME":"EARTH","RA_OF_ASC_NODE":"33.0789","OBJECT_TYPE":"PAYLOAD","RCS_SIZE":"LARGE","ARG_OF_PERICENTER":"75.6152","COUNTRY_CODE":"US","DECAY_DATE":null,"LAUNCH_DATE":"2022-02-21","APOAPSIS":"480.065","BSTAR":"-0.02076500000000","TLE_LINE2":"2 51754  53.2173  33.0789 0001582  75.6152 129.0216 15.28940600  1307","MEAN_ELEMENT_THEORY":"SGP4","TIME_SYSTEM":"UTC","GP_ID":"204716738","MEAN_MOTION_DDOT":"0.0000000000000","EPHEMERIS_TYPE":"0","MEAN_MOTION_DOT":"-0.00550125","ECCENTRICITY":"0.00015820","INCLINATION":"53.2173"}];
